[{"OBJECT_NAME":"HAIYANG-2B","OBJECT_ID":"2018-081A","EPOCH":"2026-03-10T00:03:41.001696","MEAN_MOTION":13.79306715,"ECCENTRICITY":0.0001262,"INCLINATION":99.3339,"RA_OF_ASC_NODE":79.2399,"ARG_OF_PERICENTER":141.6934,"MEAN_ANOMALY":218.4307,"EPHEMERIS_TYPE":0,"CLASSIFICATION_TYPE":"U","NORAD_CAT_ID":43655,"ELEMENT_SET_NO":999,"REV_AT_EPOCH":37125,"BSTAR":-0.00018769625,"MEAN_MOTION_DOT":-2.37e-6,"MEAN_MOTION_DDOT":0},{"OBJECT_NAME":"FENGYUN 1C DEB","OBJECT_ID":"1999-025EXR","EPOCH":"2026-03-05T14:34:14.362752","MEAN_MOTION":14.4362046,"ECCENTRICITY":0.030822,"INCLINATION":99.1548,"RA_OF_ASC_NODE":121.0018,"ARG_OF_PERICENTER":113.0587,"MEAN_ANOMALY":250.3412,"EPHEMERIS_TYPE":0,"CLASSIFICATION_TYPE":"U","NORAD_CAT_ID":41011,"ELEMENT_SET_NO":999,"REV_AT_EPOCH":58352,"BSTAR":0.00084253,"MEAN_MOTION_DOT":5.051e-5,"MEAN_MOTION_DDOT":0}]
